CCSDS_OMM_VERS = 2.0
CREATION_DATE  = 
ORIGINATOR     = 

OBJECT_NAME    = STARLINK-35509
OBJECT_ID      = 2025-243Y
CENTER_NAME    = EARTH
REF_FRAME      = TEME
TIME_SYSTEM    = UTC
MEAN_ELEMENT_THEORY = SGP/SGP4

EPOCH          = 2025-11-19T20:00:03.000384
MEAN_MOTION    = 15.50226774
ECCENTRICITY   = .0001213
INCLINATION    = 53.1596
RA_OF_ASC_NODE = 36.2869
ARG_OF_PERICENTER = 92.2602
MEAN_ANOMALY   = 263.1397

EPHEMERIS_TYPE = 0
CLASSIFICATION_TYPE = U
NORAD_CAT_ID   = 66199
ELEMENT_SET_NO = 999
REV_AT_EPOCH   = 490
BSTAR          = -.24953E-1
MEAN_MOTION_DOT = -.1296475E-1
MEAN_MOTION_DDOT = 0

CCSDS_OMM_VERS = 2.0
CREATION_DATE  = 
ORIGINATOR     = 

OBJECT_NAME    = STARLINK-35551
OBJECT_ID      = 2025-243Z
CENTER_NAME    = EARTH
REF_FRAME      = TEME
TIME_SYSTEM    = UTC
MEAN_ELEMENT_THEORY = SGP/SGP4

EPOCH          = 2025-11-19T20:00:03.000384
MEAN_MOTION    = 15.50184822
ECCENTRICITY   = .0000824
INCLINATION    = 53.1596
RA_OF_ASC_NODE = 36.2948
ARG_OF_PERICENTER = 81.3735
MEAN_ANOMALY   = 270.1988

EPHEMERIS_TYPE = 0
CLASSIFICATION_TYPE = U
NORAD_CAT_ID   = 66200
ELEMENT_SET_NO = 999
REV_AT_EPOCH   = 490
BSTAR          = -.23751E-1
MEAN_MOTION_DOT = -.123785E-1
MEAN_MOTION_DDOT = 0

CCSDS_OMM_VERS = 2.0
CREATION_DATE  = 
ORIGINATOR     = 

OBJECT_NAME    = STARLINK-35543
OBJECT_ID      = 2025-243AA
CENTER_NAME    = EARTH
REF_FRAME      = TEME
TIME_SYSTEM    = UTC
MEAN_ELEMENT_THEORY = SGP/SGP4

EPOCH          = 2025-11-19T20:00:03.000384
MEAN_MOTION    = 15.50183943
ECCENTRICITY   = .0000981
INCLINATION    = 53.1598
RA_OF_ASC_NODE = 36.2979
ARG_OF_PERICENTER = 77.4035
MEAN_ANOMALY   = 272.2519

EPHEMERIS_TYPE = 0
CLASSIFICATION_TYPE = U
NORAD_CAT_ID   = 66201
ELEMENT_SET_NO = 999
REV_AT_EPOCH   = 496
BSTAR          = -.23709E-1
MEAN_MOTION_DOT = -.1235903E-1
MEAN_MOTION_DDOT = 0

CCSDS_OMM_VERS = 2.0
CREATION_DATE  = 
ORIGINATOR     = 

OBJECT_NAME    = STARLINK-35534
OBJECT_ID      = 2025-243AB
CENTER_NAME    = EARTH
REF_FRAME      = TEME
TIME_SYSTEM    = UTC
MEAN_ELEMENT_THEORY = SGP/SGP4

EPOCH          = 2025-11-19T20:00:03.000384
MEAN_MOTION    = 15.50181271
ECCENTRICITY   = .0001046
INCLINATION    = 53.1598
RA_OF_ASC_NODE = 36.3023
ARG_OF_PERICENTER = 77.3068
MEAN_ANOMALY   = 270.4343

EPHEMERIS_TYPE = 0
CLASSIFICATION_TYPE = U
NORAD_CAT_ID   = 66202
ELEMENT_SET_NO = 999
REV_AT_EPOCH   = 490
BSTAR          = -.23668E-1
MEAN_MOTION_DOT = -.1233837E-1
MEAN_MOTION_DDOT = 0

CCSDS_OMM_VERS = 2.0
CREATION_DATE  = 
ORIGINATOR     = 

OBJECT_NAME    = STARLINK-35548
OBJECT_ID      = 2025-243AC
CENTER_NAME    = EARTH
REF_FRAME      = TEME
TIME_SYSTEM    = UTC
MEAN_ELEMENT_THEORY = SGP/SGP4

EPOCH          = 2025-11-19T20:00:03.000384
MEAN_MOTION    = 15.50179987
ECCENTRICITY   = .0000959
INCLINATION    = 53.1596
RA_OF_ASC_NODE = 36.3068
ARG_OF_PERICENTER = 75.5316
MEAN_ANOMALY   = 270.2904

EPHEMERIS_TYPE = 0
CLASSIFICATION_TYPE = U
NORAD_CAT_ID   = 66203
ELEMENT_SET_NO = 999
REV_AT_EPOCH   = 496
BSTAR          = -.23575E-1
MEAN_MOTION_DOT = -.1229345E-1
MEAN_MOTION_DDOT = 0

CCSDS_OMM_VERS = 2.0
CREATION_DATE  = 
ORIGINATOR     = 

OBJECT_NAME    = STARLINK-35490
OBJECT_ID      = 2025-243AD
CENTER_NAME    = EARTH
REF_FRAME      = TEME
TIME_SYSTEM    = UTC
MEAN_ELEMENT_THEORY = SGP/SGP4

EPOCH          = 2025-11-19T20:00:03.000384
MEAN_MOTION    = 15.50183727
ECCENTRICITY   = .0000936
INCLINATION    = 53.1597
RA_OF_ASC_NODE = 36.3142
ARG_OF_PERICENTER = 82.1582
MEAN_ANOMALY   = 259.8299

EPHEMERIS_TYPE = 0
CLASSIFICATION_TYPE = U
NORAD_CAT_ID   = 66204
ELEMENT_SET_NO = 999
REV_AT_EPOCH   = 485
BSTAR          = -.23696E-1
MEAN_MOTION_DOT = -.123525E-1
MEAN_MOTION_DDOT = 0

CCSDS_OMM_VERS = 2.0
CREATION_DATE  = 
ORIGINATOR     = 

OBJECT_NAME    = STARLINK-35748
OBJECT_ID      = 2025-244A
CENTER_NAME    = EARTH
REF_FRAME      = TEME
TIME_SYSTEM    = UTC
MEAN_ELEMENT_THEORY = SGP/SGP4

EPOCH          = 2025-11-19T20:00:03.000384
MEAN_MOTION    = 15.39598500
ECCENTRICITY   = .0001289
INCLINATION    = 53.1605
RA_OF_ASC_NODE = 24.1115
ARG_OF_PERICENTER = 81.9457
MEAN_ANOMALY   = 316.6143

EPHEMERIS_TYPE = 0
CLASSIFICATION_TYPE = U
NORAD_CAT_ID   = 66206
ELEMENT_SET_NO = 999
REV_AT_EPOCH   = 457
BSTAR          = .16452E-3
MEAN_MOTION_DOT = .6182E-4
MEAN_MOTION_DDOT = 0

CCSDS_OMM_VERS = 2.0
CREATION_DATE  = 
ORIGINATOR     = 

OBJECT_NAME    = STARLINK-35747
OBJECT_ID      = 2025-244B
CENTER_NAME    = EARTH
REF_FRAME      = TEME
TIME_SYSTEM    = UTC
MEAN_ELEMENT_THEORY = SGP/SGP4

EPOCH          = 2025-11-19T15:48:55.259424
MEAN_MOTION    = 15.74257780
ECCENTRICITY   = .0001249
INCLINATION    = 53.1600
RA_OF_ASC_NODE = 23.7837
ARG_OF_PERICENTER = 87.3843
MEAN_ANOMALY   = 272.7320

EPHEMERIS_TYPE = 0
CLASSIFICATION_TYPE = U
NORAD_CAT_ID   = 66207
ELEMENT_SET_NO = 999
REV_AT_EPOCH   = 477
BSTAR          = .13127E-2
MEAN_MOTION_DOT = .196757E-2
MEAN_MOTION_DDOT = 0

CCSDS_OMM_VERS = 2.0
CREATION_DATE  = 
ORIGINATOR     = 

OBJECT_NAME    = STARLINK-35751
OBJECT_ID      = 2025-244C
CENTER_NAME    = EARTH
REF_FRAME      = TEME
TIME_SYSTEM    = UTC
MEAN_ELEMENT_THEORY = SGP/SGP4

EPOCH          = 2025-11-19T20:00:03.000384
MEAN_MOTION    = 15.39599700
ECCENTRICITY   = .0001764
INCLINATION    = 53.1601
RA_OF_ASC_NODE = 24.1081
ARG_OF_PERICENTER = 73.8332
MEAN_ANOMALY   = 326.5386

EPHEMERIS_TYPE = 0
CLASSIFICATION_TYPE = U
NORAD_CAT_ID   = 66208
ELEMENT_SET_NO = 999
REV_AT_EPOCH   = 468
BSTAR          = .27554E-3
MEAN_MOTION_DOT = .1063E-3
MEAN_MOTION_DDOT = 0

CCSDS_OMM_VERS = 2.0
CREATION_DATE  = 
ORIGINATOR     = 

OBJECT_NAME    = STARLINK-35750
OBJECT_ID      = 2025-244D
CENTER_NAME    = EARTH
REF_FRAME      = TEME
TIME_SYSTEM    = UTC
MEAN_ELEMENT_THEORY = SGP/SGP4

EPOCH          = 2025-11-19T20:00:03.000384
MEAN_MOTION    = 15.42401066
ECCENTRICITY   = .000177
INCLINATION    = 53.1601
RA_OF_ASC_NODE = 24.0610
ARG_OF_PERICENTER = 48.7408
MEAN_ANOMALY   = 14.7868

EPHEMERIS_TYPE = 0
CLASSIFICATION_TYPE = U
NORAD_CAT_ID   = 66209
ELEMENT_SET_NO = 999
REV_AT_EPOCH   = 465
BSTAR          = -.61287E-1
MEAN_MOTION_DOT = -.2392E-1
MEAN_MOTION_DDOT = 0

CCSDS_OMM_VERS = 2.0
CREATION_DATE  = 
ORIGINATOR     = 

OBJECT_NAME    = STARLINK-35740
OBJECT_ID      = 2025-244E
CENTER_NAME    = EARTH
REF_FRAME      = TEME
TIME_SYSTEM    = UTC
MEAN_ELEMENT_THEORY = SGP/SGP4

EPOCH          = 2025-11-19T20:00:03.000384
MEAN_MOTION    = 15.42415054
ECCENTRICITY   = .0001851
INCLINATION    = 53.1599
RA_OF_ASC_NODE = 24.0649
ARG_OF_PERICENTER = 50.3037
MEAN_ANOMALY   = 11.3692

EPHEMERIS_TYPE = 0
CLASSIFICATION_TYPE = U
NORAD_CAT_ID   = 66210
ELEMENT_SET_NO = 999
REV_AT_EPOCH   = 452
BSTAR          = -.61331E-1
MEAN_MOTION_DOT = -.2394576E-1
MEAN_MOTION_DDOT = 0

CCSDS_OMM_VERS = 2.0
CREATION_DATE  = 
ORIGINATOR     = 

OBJECT_NAME    = STARLINK-35723
OBJECT_ID      = 2025-244F
CENTER_NAME    = EARTH
REF_FRAME      = TEME
TIME_SYSTEM    = UTC
MEAN_ELEMENT_THEORY = SGP/SGP4

EPOCH          = 2025-11-19T20:00:03.000384
MEAN_MOTION    = 15.44999586
ECCENTRICITY   = .0000904
INCLINATION    = 53.1606
RA_OF_ASC_NODE = 24.0302
ARG_OF_PERICENTER = 78.4277
MEAN_ANOMALY   = 0.1379

EPHEMERIS_TYPE = 0
CLASSIFICATION_TYPE = U
NORAD_CAT_ID   = 66211
ELEMENT_SET_NO = 999
REV_AT_EPOCH   = 457
BSTAR          = -.47867E-1
MEAN_MOTION_DOT = -.2040144E-1
MEAN_MOTION_DDOT = 0

