STARLINK-35509          
1 66199U 25243Y   25323.83336806 -.01296475  00000+0 -24953-1 0  9998
2 66199  53.1596  36.2869 0001213  92.2602 263.1397 15.50226774  4907
STARLINK-35551          
1 66200U 25243Z   25323.83336806 -.01237850  00000+0 -23751-1 0  9998
2 66200  53.1596  36.2948 0000824  81.3735 270.1988 15.50184822  4902
STARLINK-35543          
1 66201U 25243AA  25323.83336806 -.01235903  00000+0 -23709-1 0  9999
2 66201  53.1598  36.2979 0000981  77.4035 272.2519 15.50183943  4964
STARLINK-35534          
1 66202U 25243AB  25323.83336806 -.01233837  00000+0 -23668-1 0  9998
2 66202  53.1598  36.3023 0001046  77.3068 270.4343 15.50181271  4905
STARLINK-35548          
1 66203U 25243AC  25323.83336806 -.01229345  00000+0 -23575-1 0  9995
2 66203  53.1596  36.3068 0000959  75.5316 270.2904 15.50179987  4969
STARLINK-35490          
1 66204U 25243AD  25323.83336806 -.01235250  00000+0 -23696-1 0  9992
2 66204  53.1597  36.3142 0000936  82.1582 259.8299 15.50183727  4853
STARLINK-35748          
1 66206U 25244A   25323.83336806  .00006182  00000+0  16452-3 0  9996
2 66206  53.1605  24.1115 0001289  81.9457 316.6143 15.39598500  4575
STARLINK-35747          
1 66207U 25244B   25323.65897291  .00196757  00000+0  13127-2 0  9990
2 66207  53.1600  23.7837 0001249  87.3843 272.7320 15.74257780  4774
STARLINK-35751          
1 66208U 25244C   25323.83336806  .00010630  00000+0  27554-3 0  9996
2 66208  53.1601  24.1081 0001764  73.8332 326.5386 15.39599700  4689
STARLINK-35750          
1 66209U 25244D   25323.83336806 -.02392000  00000+0 -61287-1 0  9994
2 66209  53.1601  24.0610 0001770  48.7408  14.7868 15.42401066  4658
STARLINK-35740          
1 66210U 25244E   25323.83336806 -.02394576  00000+0 -61331-1 0  9996
2 66210  53.1599  24.0649 0001851  50.3037  11.3692 15.42415054  4521
STARLINK-35723          
1 66211U 25244F   25323.83336806 -.02040144  00000+0 -47867-1 0  9994
2 66211  53.1606  24.0302 0000904  78.4277   0.1379 15.44999586  4574
